[{"OBJECT_NAME":"STARLINK-2427","OBJECT_ID":"2021-018BC","EPOCH":"2026-03-09T18:11:25.778400","MEAN_MOTION":15.06392882,"ECCENTRICITY":0.00011446,"INCLINATION":53.0562,"RA_OF_ASC_NODE":231.3107,"ARG_OF_PERICENTER":96.8268,"MEAN_ANOMALY":263.2851,"EPHEMERIS_TYPE":0,"CLASSIFICATION_TYPE":"U","NORAD_CAT_ID":47837,"ELEMENT_SET_NO":999,"REV_AT_EPOCH":27689,"BSTAR":4.3799015e-5,"MEAN_MOTION_DOT":3.71e-6,"MEAN_MOTION_DDOT":0},{"OBJECT_NAME":"KORSAT-7","OBJECT_ID":"2023-185B","EPOCH":"2026-03-09T23:44:55.136256","MEAN_MOTION":15.00898391,"ECCENTRICITY":0.00224341,"INCLINATION":97.6243,"RA_OF_ASC_NODE":135.089,"ARG_OF_PERICENTER":307.6562,"MEAN_ANOMALY":52.2627,"EPHEMERIS_TYPE":0,"CLASSIFICATION_TYPE":"U","NORAD_CAT_ID":58463,"ELEMENT_SET_NO":999,"REV_AT_EPOCH":12440,"BSTAR":0.00023536002,"MEAN_MOTION_DOT":2.951e-5,"MEAN_MOTION_DDOT":0}]
